CELESTIS-17 & SHERPA-FX1
1 47486U 21006CB  26068.64311433  .00007207  00000+0  24301-3 0  9993
2 47486  97.2397 112.1052 0006630 178.1385 181.9882 15.30994801284065
STARLINK-34399          
1 64444U 25130G   26068.44691152  .00032563  00000+0  11068-2 0  9993
2 64444  53.1600  89.8237 0001301  81.0592 279.0556 15.30199309 40666
